METHANESAT              
1 59101U 24043D   25145.09673001  .00002572  00000+0  23886-3 0  9997
2 59101  97.7974 271.2835 0010000 218.4453 141.6056 14.95244174 66609
